TDRS 3                  
1 19548U 88091B   24012.78794316 -.00000291  00000+0  00000+0 0  9998
2 19548  13.2834 347.0256 0040095 335.4945  23.9483  1.00277431116493
HST                     
1 20580U 90037B   24012.97509660  .00007010  00000+0  35035-3 0  9991
2 20580  28.4700 309.8883 0002586 132.9037 297.9767 15.15514497653297
TDRS 5                  
1 21639U 91054B   24012.69266751  .00000092  00000+0  00000+0 0  9990
2 21639  14.1825   0.2683 0025268 355.3167 198.1922  1.00274088118828
TDRS 6                  
1 22314U 93003B   24012.86008503 -.00000289  00000+0  00000+0 0  9994
2 22314  14.1576   3.5608 0007135 163.9328 208.1498  1.00270935113529
TDRS 7                  
1 23613U 95035B   24012.74182545 -.00000190  00000+0  00000+0 0  9991
2 23613  13.7467 354.3367 0023534  61.2165  47.7334  1.00266563104365
ISS (ZARYA)             
1 25544U 98067A   24012.50266145  .00016211  00000+0  28836-3 0  9998
2 25544  51.6425  11.6924 0004122  27.6393 115.5939 15.50299019434259
LANDSAT 7               
1 25682U 99020A   24013.16389955  .00000723  00000+0  15828-3 0  9997
2 25682  97.9063  47.1994 0001661  95.4250 355.8498 14.60411694316426
TERRA                   
1 25994U 99068A   24013.13555131  .00000853  00000+0  18904-3 0  9995
2 25994  98.0705  81.0839 0002950 115.6866 300.7852 14.59531310280409
TDRS 8                  
1 26388U 00034A   24012.76427295  .00000099  00000+0  00000+0 0  9991
2 26388  11.2900  38.4566 0005462 237.4667 303.1993  1.00270407 86290
TIMED                   
1 26998U 01055B   24012.91135341  .00001884  00000+0  19622-3 0  9994
2 26998  74.0695 213.7026 0002195 276.2523  83.8409 14.90601376198537
TDRS 9                  
1 27389U 02011A   24012.71021620  .00000071  00000+0  00000+0 0  9997
2 27389  10.2647  55.2898 0002849 147.6171 222.2225  0.98979487 81511
AQUA                    
1 27424U 02022A   24013.15191271  .00001712  00000+0  37666-3 0  9993
2 27424  98.3130 322.1821 0000634  99.8957 317.6484 14.58746447153961
TDRS 10                 
1 27566U 02055A   24012.76357677  .00000092  00000+0  00000+0 0  9994
2 27566   9.2674  46.4726 0004956 294.4658 234.6165  1.00267371 77342
SORCE                   
1 27651U 03004A   24012.91512349  .00004509  00000+0  43089-3 0  9995
2 27651  39.9921 242.0659 0020364 213.2862 146.6649 14.93643642138867
AURA                    
1 28376U 04026A   24012.93735748  .00001710  00000+0  38141-3 0  9991
2 28376  98.2351 319.0813 0001186 101.3992 258.7340 14.58093484 36905
SWIFT                   
1 28485U 04047A   24012.90905493  .00011803  00000+0  58943-3 0  9994
2 28485  20.5549 216.2562 0009007  65.1544 294.9827 15.14846906 50414
THEMIS A                
1 30580U 07004A   24012.27236792 -.00000070  00000+0 -11170+0 0  9991
2 30580  10.8543 278.2586 8313893 290.9593 340.5230  0.87833444 33474
THEMIS D                
1 30797U 07004D   24012.29424500 -.00000003  00000+0  00000+0 0  9994
2 30797   7.1713 270.5577 8291807 302.1967 334.5118  0.87834479 33273
THEMIS E                
1 30798U 07004E   24012.27550073  .00000000  00000+0  00000+0 0  9994
2 30798   8.4334 289.6488 8292110 284.6725 345.2867  0.87832230 58116
AIM                     
1 31304U 07015A   24012.88392401  .00048571  00000+0  10888-2 0  9999
2 31304  97.8915 333.1419 0004418 131.3675 228.7952 15.43262501918865
FGRST (GLAST)           
1 33053U 08029A   24012.92057844  .00003459  00000+0  16155-3 0  9992
2 33053  25.5806 201.3576 0011065  14.6733 345.4123 15.15526094860838
WISE                    
1 36119U 09071A   24012.63368485  .00029749  00000+0  50979-3 0  9992
2 36119  97.1707  48.6332 0002246  51.8209 308.3245 15.51167399783884
TDRS 11                 
1 39070U 13004A   24012.83458736  .00000089  00000+0  00000+0 0  9995
2 39070   2.6969   5.9357 0003300  27.6140 204.3845  1.00276760 37801
TDRS 12                 
1 39504U 14004A   24013.14760153 -.00000258  00000+0  00000+0 0  9991
2 39504   3.5578 359.6128 0003354 240.6776 244.1233  1.00270442 36561
GPM-CORE                
1 39574U 14009C   24012.62012366  .00015104  00000+0  33446-3 0  9990
2 39574  64.9888  37.0120 0012823 261.5058  98.4630 15.43901892560877
MMS 1                   
1 40482U 15011A   24013.25002315 -.00001600  00000+0  00000+0 0  9990
2 40482  37.7649  27.3976 9173319 132.3200  33.9076  0.28389090 14938
MMS 2                   
1 40483U 15011B   24013.25002315 -.00001600  00000+0  00000+0 0  9991
2 40483  37.7720  27.4099 9172590 132.3098  33.9275  0.28389234 14910
MMS 3                   
1 40484U 15011C   24013.25002315 -.00001600  00000+0  00000+0 0  9992
2 40484  37.7629  27.4060 9171634 132.3115  33.9118  0.28389152 14910
MMS 4                   
1 40485U 15011D   24013.25002315 -.00001600  00000+0  00000+0 0  9993
2 40485  37.7670  27.4048 9172506 132.3036  33.9459  0.28389142 14911
TDRS 13                 
1 42915U 17047A   24012.79910271 -.00000087  00000+0  00000+0 0  9999
2 42915   3.7761 341.4908 0012210 115.1408 291.2787  1.00271291 23466
JPSS-1                  
1 43013U 17073A   24013.09556040  .00000164  00000+0  98502-4 0  9996
2 43013  98.7348 313.3847 0000567  89.4028 270.7213 14.19561113318758
